[{"OBJECT_NAME":"STARLINK-35639","OBJECT_ID":"2025-257C","EPOCH":"2026-03-09T22:00:42.141888","MEAN_MOTION":15.30215678,"ECCENTRICITY":0.00012157,"INCLINATION":53.1585,"RA_OF_ASC_NODE":216.3018,"ARG_OF_PERICENTER":77.4223,"MEAN_ANOMALY":282.6914,"EPHEMERIS_TYPE":0,"CLASSIFICATION_TYPE":"U","NORAD_CAT_ID":66382,"ELEMENT_SET_NO":999,"REV_AT_EPOCH":1976,"BSTAR":0.0008620011,"MEAN_MOTION_DOT":0.0002527,"MEAN_MOTION_DDOT":0},{"OBJECT_NAME":"SPACEMOBILE-001 DEB","OBJECT_ID":"2024-163F","EPOCH":"2026-03-09T07:17:56.452704","MEAN_MOTION":15.32884299,"ECCENTRICITY":0.00071876,"INCLINATION":52.9956,"RA_OF_ASC_NODE":27.518,"ARG_OF_PERICENTER":196.7865,"MEAN_ANOMALY":163.2898,"EPHEMERIS_TYPE":0,"CLASSIFICATION_TYPE":"U","NORAD_CAT_ID":62369,"ELEMENT_SET_NO":999,"REV_AT_EPOCH":7117,"BSTAR":0.00044817004,"MEAN_MOTION_DOT":0.00014099,"MEAN_MOTION_DDOT":0}]
